{"fetched_at":"2026-07-12T17:32:57.186Z","source":"https://celestrak.org/NORAD/elements/gp.php?NAME=O3B&FORMAT=JSON","constellation":"o3b-mpower","records":[{"OBJECT_NAME":"O3B MPOWER F1","OBJECT_ID":"2022-174A","EPOCH":"2026-07-12T10:45:05.973120","CLASSIFICATION_TYPE":"U","MEAN_MOTION":5.00114757,"ECCENTRICITY":0.0006615,"INCLINATION":0.0495,"RA_OF_ASC_NODE":339.5224,"ARG_OF_PERICENTER":142.5173,"MEAN_ANOMALY":91.0983,"EPHEMERIS_TYPE":0,"NORAD_CAT_ID":54755,"ELEMENT_SET_NO":999,"REV_AT_EPOCH":6662,"BSTAR":0,"MEAN_MOTION_DOT":-1.7e-7,"MEAN_MOTION_DDOT":0},{"OBJECT_NAME":"O3B MPOWER F2","OBJECT_ID":"2022-174B","EPOCH":"2026-07-12T07:06:47.858400","CLASSIFICATION_TYPE":"U","MEAN_MOTION":5.00114935,"ECCENTRICITY":0.0005798,"INCLINATION":0.0454,"RA_OF_ASC_NODE":339.8194,"ARG_OF_PERICENTER":125.8325,"MEAN_ANOMALY":254.4105,"EPHEMERIS_TYPE":0,"NORAD_CAT_ID":54756,"ELEMENT_SET_NO":999,"REV_AT_EPOCH":6670,"BSTAR":0,"MEAN_MOTION_DOT":-1.7e-7,"MEAN_MOTION_DDOT":0},{"OBJECT_NAME":"O3B MPOWER F4","OBJECT_ID":"2023-059A","EPOCH":"2026-07-12T03:51:27.033120","CLASSIFICATION_TYPE":"U","MEAN_MOTION":5.00115362,"ECCENTRICITY":0.0007728,"INCLINATION":0.063,"RA_OF_ASC_NODE":350.4478,"ARG_OF_PERICENTER":123.9289,"MEAN_ANOMALY":245.7027,"EPHEMERIS_TYPE":0,"NORAD_CAT_ID":56367,"ELEMENT_SET_NO":999,"REV_AT_EPOCH":5985,"BSTAR":0,"MEAN_MOTION_DOT":-1.7e-7,"MEAN_MOTION_DDOT":0},{"OBJECT_NAME":"O3B MPOWER F3","OBJECT_ID":"2023-059B","EPOCH":"2026-07-12T09:27:00.640224","CLASSIFICATION_TYPE":"U","MEAN_MOTION":5.001164,"ECCENTRICITY":0.0006678,"INCLINATION":0.0637,"RA_OF_ASC_NODE":349.7076,"ARG_OF_PERICENTER":118.0812,"MEAN_ANOMALY":252.2825,"EPHEMERIS_TYPE":0,"NORAD_CAT_ID":56368,"ELEMENT_SET_NO":999,"REV_AT_EPOCH":5599,"BSTAR":0,"MEAN_MOTION_DOT":-1.7e-7,"MEAN_MOTION_DDOT":0},{"OBJECT_NAME":"O3B MPOWER F5","OBJECT_ID":"2023-175A","EPOCH":"2026-07-12T07:04:36.018048","CLASSIFICATION_TYPE":"U","MEAN_MOTION":5.00115833,"ECCENTRICITY":0.0005469,"INCLINATION":0.0519,"RA_OF_ASC_NODE":9.3794,"ARG_OF_PERICENTER":119.5646,"MEAN_ANOMALY":231.1032,"EPHEMERIS_TYPE":0,"NORAD_CAT_ID":58346,"ELEMENT_SET_NO":999,"REV_AT_EPOCH":5069,"BSTAR":0,"MEAN_MOTION_DOT":-1.7e-7,"MEAN_MOTION_DDOT":0},{"OBJECT_NAME":"O3B MPOWER F6","OBJECT_ID":"2023-175B","EPOCH":"2026-07-12T09:29:17.138400","CLASSIFICATION_TYPE":"U","MEAN_MOTION":5.00115733,"ECCENTRICITY":0.0004435,"INCLINATION":0.0538,"RA_OF_ASC_NODE":1.0726,"ARG_OF_PERICENTER":108.3478,"MEAN_ANOMALY":250.6259,"EPHEMERIS_TYPE":0,"NORAD_CAT_ID":58347,"ELEMENT_SET_NO":999,"REV_AT_EPOCH":4961,"BSTAR":0,"MEAN_MOTION_DOT":-1.7e-7,"MEAN_MOTION_DDOT":0},{"OBJECT_NAME":"O3B MPOWER F7","OBJECT_ID":"2024-244A","EPOCH":"2026-07-12T11:04:53.952384","CLASSIFICATION_TYPE":"U","MEAN_MOTION":5.00115309,"ECCENTRICITY":0.0005936,"INCLINATION":0.0661,"RA_OF_ASC_NODE":343.3115,"ARG_OF_PERICENTER":123.6755,"MEAN_ANOMALY":253.0764,"EPHEMERIS_TYPE":0,"NORAD_CAT_ID":62362,"ELEMENT_SET_NO":999,"REV_AT_EPOCH":2778,"BSTAR":0,"MEAN_MOTION_DOT":-1.8e-7,"MEAN_MOTION_DDOT":0},{"OBJECT_NAME":"O3B MPOWER F8","OBJECT_ID":"2024-244B","EPOCH":"2026-07-12T10:17:18.307104","CLASSIFICATION_TYPE":"U","MEAN_MOTION":5.00115023,"ECCENTRICITY":0.0005777,"INCLINATION":0.0143,"RA_OF_ASC_NODE":0.7572,"ARG_OF_PERICENTER":98.9787,"MEAN_ANOMALY":260.3276,"EPHEMERIS_TYPE":0,"NORAD_CAT_ID":62363,"ELEMENT_SET_NO":999,"REV_AT_EPOCH":2213,"BSTAR":0,"MEAN_MOTION_DOT":-1.7e-7,"MEAN_MOTION_DDOT":0},{"OBJECT_NAME":"O3B MPOWER F9","OBJECT_ID":"2025-153A","EPOCH":"2026-07-12T03:53:32.258688","CLASSIFICATION_TYPE":"U","MEAN_MOTION":5.00115663,"ECCENTRICITY":0.0006697,"INCLINATION":0.061,"RA_OF_ASC_NODE":6.0293,"ARG_OF_PERICENTER":123.2857,"MEAN_ANOMALY":230.743,"EPHEMERIS_TYPE":0,"NORAD_CAT_ID":64866,"ELEMENT_SET_NO":999,"REV_AT_EPOCH":2081,"BSTAR":0,"MEAN_MOTION_DOT":-1.7e-7,"MEAN_MOTION_DDOT":0},{"OBJECT_NAME":"O3B MPOWER F10","OBJECT_ID":"2025-153B","EPOCH":"2026-07-12T03:04:38.796384","CLASSIFICATION_TYPE":"U","MEAN_MOTION":5.00114861,"ECCENTRICITY":0.0002375,"INCLINATION":0.0582,"RA_OF_ASC_NODE":2.5215,"ARG_OF_PERICENTER":245.2939,"MEAN_ANOMALY":112.1579,"EPHEMERIS_TYPE":0,"NORAD_CAT_ID":64867,"ELEMENT_SET_NO":999,"REV_AT_EPOCH":2328,"BSTAR":0,"MEAN_MOTION_DOT":-1.7e-7,"MEAN_MOTION_DDOT":0}]}
