O3B MPOWER F1           
1 54755U 22174A   26193.44798580 -.00000017  00000+0  00000+0 0  9995
2 54755   0.0495 339.5224 0006615 142.5173  91.0983  5.00114757 66625
O3B MPOWER F2           
1 54756U 22174B   26193.29638725 -.00000017  00000+0  00000+0 0  9993
2 54756   0.0454 339.8194 0005798 125.8325 254.4105  5.00114935 66702
O3B MPOWER F4           
1 56367U 23059A   26193.16072955 -.00000017  00000+0  00000+0 0  9999
2 56367   0.0630 350.4478 0007728 123.9289 245.7027  5.00115362 59854
O3B MPOWER F3           
1 56368U 23059B   26193.39375741 -.00000017  00000+0  00000+0 0  9994
2 56368   0.0637 349.7076 0006678 118.0812 252.2825  5.00116400 55991
O3B MPOWER F5           
1 58346U 23175A   26193.29486132 -.00000017  00000+0  00000+0 0  9997
2 58346   0.0519   9.3794 0005469 119.5646 231.1032  5.00115833 50699
O3B MPOWER F6           
1 58347U 23175B   26193.39533725 -.00000017  00000+0  00000+0 0  9990
2 58347   0.0538   1.0726 0004435 108.3478 250.6259  5.00115733 49612
O3B MPOWER F7           
1 62362U 24244A   26193.46173556 -.00000018  00000+0  00000+0 0  9991
2 62362   0.0661 343.3115 0005936 123.6755 253.0764  5.00115309 27781
O3B MPOWER F8           
1 62363U 24244B   26193.42868411 -.00000017  00000+0  00000+0 0  9998
2 62363   0.0143   0.7572 0005777  98.9787 260.3276  5.00115023 22136
O3B MPOWER F9           
1 64866U 25153A   26193.16217892 -.00000017  00000+0  00000+0 0  9990
2 64866   0.0610   6.0293 0006697 123.2857 230.7430  5.00115663 20812
O3B MPOWER F10          
1 64867U 25153B   26193.12822681 -.00000017  00000+0  00000+0 0  9995
2 64867   0.0582   2.5215 0002375 245.2939 112.1579  5.00114861 23281
